{
  "type": "FeatureCollection",
  "features": [
    {
      "type": "Feature",
      "properties": {
        "norad_id": 66647,
        "name": "COSMOS 2597 (RODNIK-S 22)",
        "group": "last-30-days",
        "lat": 2.3633088559325475,
        "lon": -79.42713197200158,
        "alt_km": 1501.7056228506817,
        "timestamp": "2025-12-22T16:55:16.165814+00:00",
        "meta_object_name": "COSMOS 2597 (RODNIK-S 22)",
        "meta_object_id": "2025-273A",
        "meta_epoch": "2025-12-22T05:18:28.999008",
        "meta_mean_motion": 12.41952083,
        "meta_eccentricity": 0.00076156,
        "meta_inclination": 82.4994,
        "meta_ra_of_asc_node": 280.5617,
        "meta_arg_of_pericenter": 264.0825,
        "meta_mean_anomaly": 95.9386,
        "meta_ephemeris_type": 0,
        "meta_classification_type": "U",
        "meta_norad_cat_id": 66647,
        "meta_element_set_no": 999,
        "meta_rev_at_epoch": 331,
        "meta_bstar": 0.00010562443,
        "meta_mean_motion_dot": 2.4e-07,
        "meta_mean_motion_ddot": 0,
        "tle_line1": "1 66647U 25273A   25356.22116897  .00000024  00000+0  10562-3 0  9997",
        "tle_line2": "2 66647  82.4994 280.5617 0007615 264.0825  95.9386 12.41952083  3314"
      },
      "geometry": {
        "type": "Point",
        "coordinates": [
          -79.42713197200158,
          2.3633088559325475
        ]
      }
    },
    {
      "type": "Feature",
      "properties": {
        "norad_id": 66648,
        "name": "COSMOS 2598 (RODNIK-S 23)",
        "group": "last-30-days",
        "lat": 80.37555499653752,
        "lon": -28.81400210607775,
        "alt_km": 1489.5768531875856,
        "timestamp": "2025-12-22T16:55:16.165824+00:00",
        "meta_object_name": "COSMOS 2598 (RODNIK-S 23)",
        "meta_object_id": "2025-273B",
        "meta_epoch": "2025-12-22T04:52:56.144640",
        "meta_mean_motion": 12.43233633,
        "meta_eccentricity": 0.00081341,
        "meta_inclination": 82.5032,
        "meta_ra_of_asc_node": 280.5621,
        "meta_arg_of_pericenter": 214.2361,
        "meta_mean_anomaly": 145.8195,
        "meta_ephemeris_type": 0,
        "meta_classification_type": "U",
        "meta_norad_cat_id": 66648,
        "meta_element_set_no": 999,
        "meta_rev_at_epoch": 331,
        "meta_bstar": 0.00027841438,
        "meta_mean_motion_dot": 4.9e-07,
        "meta_mean_motion_ddot": 0,
        "tle_line1": "1 66648U 25273B   25356.20342760  .00000049  00000+0  27841-3 0  9991",
        "tle_line2": "2 66648  82.5032 280.5621 0008134 214.2361 145.8195 12.43233633  3311"
      },
      "geometry": {
        "type": "Point",
        "coordinates": [
          -28.81400210607775,
          80.37555499653752
        ]
      }
    },
    {
      "type": "Feature",
      "properties": {
        "norad_id": 66649,
        "name": "COSMOS 2599 (RODNIK-S 24)",
        "group": "last-30-days",
        "lat": -44.47630839060719,
        "lon": -87.13319414484701,
        "alt_km": 1505.9077835462995,
        "timestamp": "2025-12-22T16:55:16.165835+00:00",
        "meta_object_name": "COSMOS 2599 (RODNIK-S 24)",
        "meta_object_id": "2025-273C",
        "meta_epoch": "2025-12-22T05:33:18.417888",
        "meta_mean_motion": 12.41151062,
        "meta_eccentricity": 0.00062524,
        "meta_inclination": 82.505,
        "meta_ra_of_asc_node": 280.5863,
        "meta_arg_of_pericenter": 255.1338,
        "meta_mean_anomaly": 104.9048,
        "meta_ephemeris_type": 0,
        "meta_classification_type": "U",
        "meta_norad_cat_id": 66649,
        "meta_element_set_no": 999,
        "meta_rev_at_epoch": 331,
        "meta_bstar": 0.00020164717,
        "meta_mean_motion_dot": 3.7e-07,
        "meta_mean_motion_ddot": 0,
        "tle_line1": "1 66649U 25273C   25356.23146317  .00000037  00000+0  20165-3 0  9994",
        "tle_line2": "2 66649  82.5050 280.5863 0006252 255.1338 104.9048 12.41151062  3313"
      },
      "geometry": {
        "type": "Point",
        "coordinates": [
          -87.13319414484701,
          -44.47630839060719
        ]
      }
    },
    {
      "type": "Feature",
      "properties": {
        "norad_id": 66650,
        "name": "BEE-1000",
        "group": "last-30-days",
        "lat": 46.54096046097746,
        "lon": 111.96269781094871,
        "alt_km": 587.5361166259381,
        "timestamp": "2025-12-22T16:55:16.165846+00:00",
        "meta_object_name": "BEE-1000",
        "meta_object_id": "2025-274A",
        "meta_epoch": "2025-12-22T01:50:15.669600",
        "meta_mean_motion": 14.916911,
        "meta_eccentricity": 0.00108663,
        "meta_inclination": 97.7404,
        "meta_ra_of_asc_node": 283.0932,
        "meta_arg_of_pericenter": 216.848,
        "meta_mean_anomaly": 143.1994,
        "meta_ephemeris_type": 0,
        "meta_classification_type": "U",
        "meta_norad_cat_id": 66650,
        "meta_element_set_no": 999,
        "meta_rev_at_epoch": 379,
        "meta_bstar": 0.0001581754,
        "meta_mean_motion_dot": 1.536e-05,
        "meta_mean_motion_ddot": 0,
        "tle_line1": "1 66650U 25274A   25356.07657025  .00001536  00000+0  15818-3 0  9996",
        "tle_line2": "2 66650  97.7404 283.0932 0010866 216.8480 143.1994 14.91691100  3795"
      },
      "geometry": {
        "type": "Point",
        "coordinates": [
          111.96269781094871,
          46.54096046097746
        ]
      }
    },
    {
      "type": "Feature",
      "properties": {
        "norad_id": 66651,
        "name": "2025-274B",
        "group": "last-30-days",
        "lat": 36.18318018527173,
        "lon": 109.4221100324284,
        "alt_km": 587.0432614762803,
        "timestamp": "2025-12-22T16:55:16.165856+00:00",
        "meta_object_name": "2025-274B",
        "meta_object_id": "2025-274B",
        "meta_epoch": "2025-12-21T17:44:37.356000",
        "meta_mean_motion": 14.91854943,
        "meta_eccentricity": 0.00111294,
        "meta_inclination": 97.7399,
        "meta_ra_of_asc_node": 282.7646,
        "meta_arg_of_pericenter": 216.884,
        "meta_mean_anomaly": 143.1615,
        "meta_ephemeris_type": 0,
        "meta_classification_type": "U",
        "meta_norad_cat_id": 66651,
        "meta_element_set_no": 999,
        "meta_rev_at_epoch": 374,
        "meta_bstar": 0.00029304221,
        "meta_mean_motion_dot": 2.907e-05,
        "meta_mean_motion_ddot": 0,
        "tle_line1": "1 66651U 25274B   25355.73932125  .00002907  00000+0  29304-3 0  9994",
        "tle_line2": "2 66651  97.7399 282.7646 0011129 216.8840 143.1615 14.91854943  3741"
      },
      "geometry": {
        "type": "Point",
        "coordinates": [
          109.4221100324284,
          36.18318018527173
        ]
      }
    },
    {
      "type": "Feature",
      "properties": {
        "norad_id": 66652,
        "name": "2025-274C",
        "group": "last-30-days",
        "lat": 25.163974835504394,
        "lon": 107.38291829099302,
        "alt_km": 588.055424343449,
        "timestamp": "2025-12-22T16:55:16.165868+00:00",
        "meta_object_name": "2025-274C",
        "meta_object_id": "2025-274C",
        "meta_epoch": "2025-12-22T06:34:20.535456",
        "meta_mean_motion": 14.91951584,
        "meta_eccentricity": 0.00107003,
        "meta_inclination": 97.7405,
        "meta_ra_of_asc_node": 283.2957,
        "meta_arg_of_pericenter": 221.5965,
        "meta_mean_anomaly": 138.4441,
        "meta_ephemeris_type": 0,
        "meta_classification_type": "U",
        "meta_norad_cat_id": 66652,
        "meta_element_set_no": 999,
        "meta_rev_at_epoch": 382,
        "meta_bstar": 0.00031358877,
        "meta_mean_motion_dot": 3.122e-05,
        "meta_mean_motion_ddot": 0,
        "tle_line1": "1 66652U 25274C   25356.27384879  .00003122  00000+0  31359-3 0  9995",
        "tle_line2": "2 66652  97.7405 283.2957 0010700 221.5965 138.4441 14.91951584  3828"
      },
      "geometry": {
        "type": "Point",
        "coordinates": [
          107.38291829099302,
          25.163974835504394
        ]
      }
    },
    {
      "type": "Feature",
      "properties": {
        "norad_id": 66653,
        "name": "2025-274D",
        "group": "last-30-days",
        "lat": 24.73693793258243,
        "lon": 107.31179090940233,
        "alt_km": 587.4039210730034,
        "timestamp": "2025-12-22T16:55:16.165878+00:00",
        "meta_object_name": "2025-274D",
        "meta_object_id": "2025-274D",
        "meta_epoch": "2025-12-22T01:44:29.360256",
        "meta_mean_motion": 14.91947485,
        "meta_eccentricity": 0.00116201,
        "meta_inclination": 97.7403,
        "meta_ra_of_asc_node": 283.0978,
        "meta_arg_of_pericenter": 219.0062,
        "meta_mean_anomaly": 141.0319,
        "meta_ephemeris_type": 0,
        "meta_classification_type": "U",
        "meta_norad_cat_id": 66653,
        "meta_element_set_no": 999,
        "meta_rev_at_epoch": 379,
        "meta_bstar": 0.00020975597,
        "meta_mean_motion_dot": 2.07e-05,
        "meta_mean_motion_ddot": 0,
        "tle_line1": "1 66653U 25274D   25356.07256204  .00002070  00000+0  20976-3 0  9998",
        "tle_line2": "2 66653  97.7403 283.0978 0011620 219.0062 141.0319 14.91947485  3795"
      },
      "geometry": {
        "type": "Point",
        "coordinates": [
          107.31179090940233,
          24.73693793258243
        ]
      }
    }
  ]
}